FENGYUN 1C DEB          
1 31426U 99025BTN 17344.84641500  .00000168  00000-0  12658-3 0  9998
2 31426  98.5689 355.1604 0359195 212.3360 276.8041 13.78437465532013
